ONEWEB-0474             
1 51654U 22012AJ  24062.90181959  .00000427  00000+0  11862-2 0  9996
2 51654  87.8954 202.4082 0001687  90.0369 270.0951 13.10376009 99777
ONEWEB-0475             
1 51655U 22012AK  24063.24126314  .00000057  00000+0  11295-3 0  9999
2 51655  87.9265 172.1680 0002009  93.0814 267.0547 13.17648887104898
ONEWEB-0490             
1 54113U 22138A   24062.64789460  .00000038  00000+0  62638-4 0  9997
2 54113  87.9134 111.4976 0001940  92.9638 267.1716 13.19726471 66494
ONEWEB-0492             
1 54114U 22138B   24063.50715901 -.00000013  00000+0 -65750-4 0  9996
2 54114  87.9138 111.3236 0001876  87.1172 273.0175 13.19725722 67487
ONEWEB-0495             
1 54115U 22138C   24063.18177857  .00000024  00000+0  28360-4 0  9999
2 54115  87.9138 111.4000 0002145  84.7777 275.3600 13.19726176 67428
ONEWEB-0497             
1 54116U 22138D   24063.19442011  .00000009  00000+0 -98261-5 0  9990
2 54116  87.9134 111.3903 0001957  91.7760 268.3597 13.19725946 67416
ONEWEB-0499             
1 54117U 22138E   24062.64632377  .00000014  00000+0  26194-5 0  9997
2 54117  87.9140 111.4960 0002553  96.5663 263.5760 13.19724625 66484
ONEWEB-0500             
1 54118U 22138F   24063.40766961  .00007736  00000+0  19286-1 0  9998
2 54118  87.9135 111.3434 0002030  89.5397 270.5968 13.19687895 67464
